ORBCOMM FM103           
1 40091U 14040F   24342.57058354  .00001744  00000+0  41644-3 0  9992
2 40091  47.0030 202.3427 0001759 137.6241 222.4780 14.57533532536148
ORBCOMM FM114           
1 41179U 15081A   24342.53079611  .00002632  00000+0  60911-3 0  9996
2 41179  47.0011 111.7021 0002838 211.4681 148.6035 14.57589553476505
ORBCOMM FM119           
1 41180U 15081B   24342.50850738  .00001968  00000+0  46559-3 0  9995
2 41180  47.0010  21.0433 0002222 270.1620  89.9010 14.57510211477751
ORBCOMM FM105           
1 41181U 15081C   24342.42541577  .00000951  00000+0  31561-3 0  9993
2 41181  47.0028   7.9432 0001827 211.9097 148.1673 14.44888086473016
ORBCOMM FM110           
1 41182U 15081D   24342.50688031  .00002572  00000+0  59574-3 0  9995
2 41182  47.0002 111.1933 0001810 302.6804  57.3907 14.57600269476371
ORBCOMM FM118           
1 41183U 15081E   24342.62337525  .00002236  00000+0  52369-3 0  9990
2 41183  47.0026 111.0157 0002239 308.4122  51.6562 14.57526716476499
ORBCOMM FM112           
1 41184U 15081F   24342.48562712  .00002532  00000+0  58798-3 0  9994
2 41184  46.9994  20.3362 0002146 255.8838 104.1809 14.57525868477696
ORBCOMM FM113           
1 41185U 15081G   24342.53163680  .00002474  00000+0  57525-3 0  9994
2 41185  47.0011  20.4217 0002239 272.8756  87.1873 14.57535928477688
